STARLINK-1007           
1 44713U 19074A   20113.91667824  .00104219  00000-0  70717-2 0  9991
2 44713  52.9961 103.8546 0001115  73.6171 197.1087 15.05555017 25377
STARLINK-1008           
1 44714U 19074B   20113.91667824  .00096491  00000-0  65530-2 0  9991
2 44714  53.0004 103.8328 0001560  70.4722 290.2601 15.05571341 25372
STARLINK-1009           
1 44715U 19074C   20113.91667824  .00036201  00000-0  24911-2 0  9993
2 44715  52.9934 103.8714 0001477  83.4123 331.4453 15.05578127 25369
STARLINK-1010           
1 44716U 19074D   20113.91667824  .00083695  00000-0  64840-2 0  9998
2 44716  52.9967 101.5630 0001542  70.9512 239.3080 15.00689892 25408
STARLINK-1011           
1 44717U 19074E   20113.91667824  .00041795  00000-0  28724-2 0  9995
2 44717  52.9956 123.8562 0001216  96.7820 189.8755 15.05557995  1757
STARLINK-1012           
1 44718U 19074F   20113.91667824  .00030942  00000-0  21340-2 0  9995
2 44718  52.9948 103.8542 0001407  74.6708  52.0352 15.05571060  1750
STARLINK-1013           
1 44719U 19074G   20113.91667824  .00036528  00000-0  25147-2 0  9991
2 44719  52.9951 103.8549 0001478  79.4385 353.3491 15.05557852 25361
STARLINK-1014           
1 44720U 19074H   20113.91667824  .00044739  00000-0  30696-2 0  9991
2 44720  52.9988 103.8363 0007270 299.4125  43.4321 15.05570553  1758
STARLINK-1015           
1 44721U 19074J   20113.91667824  .00036458  00000-0  25089-2 0  9991
2 44721  52.9880 103.8934 0001682  79.1286 317.6962 15.05572824  1767
STARLINK-1016           
1 44722U 19074K   20113.91667824  .00037364  00000-0  25714-2 0  9994
2 44722  53.0034 103.8238 0001358  69.9607 308.8041 15.05558998  1768
STARLINK-1017           
1 44723U 19074L   20113.91667824  .00033818  00000-0  23302-2 0  9996
2 44723  52.9959 103.8525 0001491  69.0068 237.7991 15.05561809  1750
STARLINK-1019           
1 44724U 19074M   20113.91667824  .00078473  00000-0  53453-2 0  9993
2 44724  52.9946 103.8566 0001409  84.9183  59.8025 15.05579935 25379
STARLINK-1020           
1 44725U 19074N   20113.91667824  .00043204  00000-0  29683-2 0  9996
2 44725  52.9952 123.8535 0001231 107.4455 323.2215 15.05553593 25080
STARLINK-1021           
1 44726U 19074P   20113.91667824  .00028549  00000-0  19713-2 0  9995
2 44726  52.9953 103.8554 0001347  76.5913  86.1558 15.05567255  1757
STARLINK-1022           
1 44727U 19074Q   20113.91667824  .00032127  00000-0  22161-2 0  9994
2 44727  53.0129 143.7674 0000819 106.3649 126.6158 15.05545753 24820
STARLINK-1023           
1 44728U 19074R   20113.91667824  .00042606  00000-0  31921-2 0  9992
2 44728  52.9975 103.0964 0001445  77.4171 244.4567 15.02304002 25385
STARLINK-1024           
1 44729U 19074S   20113.91667824  .00043892  00000-0  30148-2 0  9991
2 44729  52.9960 123.8504 0001217  97.2743 243.3261 15.05555999  1752
STARLINK-1025           
1 44730U 19074T   20113.91667824  .00034414  00000-0  23696-2 0  9993
2 44730  52.9979 103.8542 0001552  75.5945 249.2249 15.05579595  1758
STARLINK-1026           
1 44731U 19074U   20113.91667824  .00034855  00000-0  23997-2 0  9997
2 44731  52.9960 103.8553 0001602  66.9188  23.9808 15.05577052  1765
STARLINK-1027           
1 44732U 19074V   20113.91667824  .00037739  00000-0  25968-2 0  9992
2 44732  52.9972 123.8527 0001122  85.6862  38.9857 15.05560896 25085
STARLINK-1028           
1 44733U 19074W   20113.91667824  .00026011  00000-0  17977-2 0  9995
2 44733  52.9958 103.8566 0001769  78.0549 102.7451 15.05581281 25379
STARLINK-1029           
1 44734U 19074X   20113.91667824  .00025170  00000-0  30236-3 0  9995
2 44734  52.9955  88.1787 0005826 116.1655 100.7076 15.60728918  1777
STARLINK-1030           
1 44735U 19074Y   20113.91667824  .00041986  00000-0  28851-2 0  9998
2 44735  52.9971 123.8552 0000922  97.7837 350.8011 15.05560795  1763
STARLINK-1031           
1 44736U 19074Z   20113.91667824  .00044107  00000-0  35933-2 0  9996
2 44736  52.9981 123.1812 0001196  82.8458 282.3038 14.99087012 25105
STARLINK-1032           
1 44737U 19074AA  20113.91667824  .00041657  00000-0  28626-2 0  9995
2 44737  52.9962 123.8497 0001389  81.6746 222.9123 15.05562996  1759
STARLINK-1033           
1 44738U 19074AB  20113.91667824  .00044239  00000-0  30375-2 0  9999
2 44738  52.9927 123.8783 0000734 112.6409 263.9970 15.05566718  1765
STARLINK-1052           
1 44739U 19074AC  20113.91667824  .00042589  00000-0  29276-2 0  9994
2 44739  52.9950 123.8552 0000879 103.3882 309.3486 15.05540509 25086
STARLINK-1035           
1 44740U 19074AD  20113.91667824  .00042991  00000-0  29548-2 0  9995
2 44740  52.9985 123.8526 0000918  81.8277 240.8622 15.05542288 25097
STARLINK-1036           
1 44741U 19074AE  20113.91667824  .00113241  00000-0  76721-2 0  9998
2 44741  52.9947 123.8522 0001069  94.4737 174.1344 15.05556359 25095
STARLINK-1037           
1 44742U 19074AF  20113.00932010  .00001582  00000-0  12693-3 0  9994
2 44742  52.9987 127.8705 0000723 189.1390 170.9585 15.05827946 24958
STARLINK-1038           
1 44743U 19074AG  20113.91667824  .00035772  00000-0  24620-2 0  9993
2 44743  52.9955 143.8539 0000949 100.5355 240.4277 15.05577694  1751
STARLINK-1039           
1 44744U 19074AH  20113.91667824  .00038177  00000-0  26267-2 0  9995
2 44744  52.9968 143.8575 0001216  93.1341 211.7492 15.05557998  1751
STARLINK-1040           
1 44745U 19074AJ  20113.61900656  .00080521  00000-0  30851-3 0  9991
2 44745  52.9901  73.4269 0004712  32.6488 327.4826 15.86742087 25768
STARLINK-1041           
1 44746U 19074AK  20113.91667824  .00035529  00000-0  24463-2 0  9991
2 44746  52.9956 143.8525 0001136  99.1793 259.7717 15.05564807 24814
STARLINK-1042           
1 44747U 19074AL  20113.91667824  .00031626  00000-0  21800-2 0  9998
2 44747  53.0128 143.7733 0001167  82.7284 132.2018 15.05580629 24825
STARLINK-1043           
1 44748U 19074AM  20113.91667824  .00035145  00000-0  24205-2 0  9991
2 44748  53.0018 143.8306 0001578  80.9029 350.0542 15.05560118 24816
STARLINK-1044           
1 44749U 19074AN  20113.91667824  .00037331  00000-0  25686-2 0  9995
2 44749  52.9960 123.8560 0000632  94.1615 156.4799 15.05567534 25091
STARLINK-1045           
1 44750U 19074AP  20113.91667824  .00034822  00000-0  23971-2 0  9994
2 44750  52.9960 143.8564 0001382  88.6816 198.2779 15.05583043  1755
STARLINK-1046           
1 44751U 19074AQ  20113.91667824  .00035604  00000-0  24503-2 0  9996
2 44751  52.9962 143.8566 0001461 102.7453 220.2184 15.05582259  1757
STARLINK-1047           
1 44752U 19074AR  20113.91667824  .00109557  00000-0  74259-2 0  9999
2 44752  52.9956 123.8571 0001142  86.5470 146.0508 15.05561971 25095
STARLINK-1048           
1 44753U 19074AS  20113.91667824  .00027949  00000-0  19306-2 0  9996
2 44753  52.9966 103.8584 0001363  82.5198 170.2821 15.05564374 25375
STARLINK-1049           
1 44754U 19074AT  20113.91667824  .00028081  00000-0  19396-2 0  9994
2 44754  52.9965 103.8571 0001382  77.3069 157.5159 15.05563598  1756
STARLINK-1050           
1 44755U 19074AU  20113.91667824  .00035182  00000-0  24231-2 0  9999
2 44755  53.0157 143.7525 0001183 100.1198 168.7591 15.05560160 24820
STARLINK-1051           
1 44756U 19074AV  20113.91667824  .00027176  00000-0  18778-2 0  9993
2 44756  52.9946 103.8554 0001676  75.9002 140.8704 15.05566997  1752
STARLINK-1034           
1 44757U 19074AW  20113.91667824  .00048664  00000-0  33390-2 0  9996
2 44757  52.9952 123.8540 0001351  92.5092  68.2030 15.05547891 25091
STARLINK-1053           
1 44758U 19074AX  20113.91667824  .00031608  00000-0  21805-2 0  9995
2 44758  53.0054 143.8061 0000641 105.9041  37.0938 15.05550581 24822
STARLINK-1054           
1 44759U 19074AY  20113.91667824  .00030527  00000-0  21070-2 0  9999
2 44759  53.0087 143.7899 0001157  97.8462  81.1639 15.05548606 24829
STARLINK-1055           
1 44760U 19074AZ  20113.91667824  .00033302  00000-0  22946-2 0  9998
2 44760  53.0128 143.7622 0000737 117.8674 133.0901 15.05570424  1751
STARLINK-1056           
1 44761U 19074BA  20113.91667824  .00030695  00000-0  21164-2 0  9992
2 44761  53.0100 143.7821 0001096 101.5840  95.2905 15.05585272  1757
STARLINK-1057           
1 44762U 19074BB  20113.91667824  .00033922  00000-0  23385-2 0  9996
2 44762  52.9972 123.8503 0001520  65.4379 113.3101 15.05542138  1750
STARLINK-1058           
1 44763U 19074BC  20113.91667824  .00034139  00000-0  23526-2 0  9995
2 44763  53.0025 143.8238 0001250  89.3105 359.6628 15.05552952 24817
STARLINK-1059           
1 44764U 19074BD  20113.91667824  .00033784  00000-0  23275-2 0  9992
2 44764  52.9956 123.8508 0001055 120.0403  76.5886 15.05568089 25094
STARLINK-1060           
1 44765U 19074BE  20113.91667824  .00040151  00000-0  27599-2 0  9992
2 44765  52.9963 123.8548 0001131  92.1989  14.4432 15.05570223 25080
STARLINK-1061           
1 44766U 19074BF  20113.91667824  .00031772  00000-0  21913-2 0  9996
2 44766  53.0054 143.8134 0001375  99.3167  25.5835 15.05556757 24821
STARLINK-1062           
1 44767U 19074BG  20113.91667824  .00030637  00000-0  21146-2 0  9994
2 44767  53.0078 143.7969 0001378  81.9542  79.0712 15.05546772  1751
STARLINK-1063           
1 44768U 19074BH  20113.91667824  .00036593  00000-0  25186-2 0  9990
2 44768  52.9980 143.8439 0001304  99.0616 295.8703 15.05565230  1765
STARLINK-1064           
1 44769U 19074BJ  20113.91667824  .00035862  00000-0  24673-2 0  9999
2 44769  52.9986 143.8533 0001311 119.9780 256.9773 15.05590038  1768
STARLINK-1065           
1 44770U 19074BK  20113.57012099  .00001469  00000-0  11922-3 0  9991
2 44770  53.0037 145.3533 0001381 145.0631 215.0448 15.05815909 24765
STARLINK-1067           
1 44771U 19074BL  20113.91667824  .00032126  00000-0  22161-2 0  9992
2 44771  53.0036 143.8217 0001207  85.8175  21.1850 15.05545161 24817
